[
    {
        "Altitude(m)": 617710.6274833723,
        "Argument of Periapsis(deg)": 0.0,
        "Eccentricity": 0.0,
        "Inclination(deg)": 60.0,
        "Latitude(deg)": -41.10262717506628,
        "Longitude(deg)": 104.96664694675253,
        "Mean Anomaly(deg)": -49.09089999999999,
        "RAAN(deg)": 235.0,
        "Satellite Name": "Test1 1053",
        "Satellite Number": 1053,
        "Semi-Major Axis(m)": 6980739.136638005,
        "Time(s)": 0
    },
    {
        "Altitude(m)": 617517.9259435635,
        "Argument of Periapsis(deg)": 0.00010418945913296404,
        "Eccentricity": 0.0,
        "Inclination(deg)": 60.0,
        "Latitude(deg)": -40.63683395809968,
        "Longitude(deg)": 105.46344003369896,
        "Mean Anomaly(deg)": -48.470793854538144,
        "RAAN(deg)": 234.99957995086027,
        "Satellite Name": "Test1 1053",
        "Satellite Number": 1053,
        "Semi-Major Axis(m)": 6980739.136638005,
        "Time(s)": 10
    }
]